{
    "links": {
        "self": "http://www.neowsapp.com/rest/v1/neo/3472367?api_key=iIulBulltgU6a56xZRHN4H3l9WmuAYTsLGpBGhQ2"
    },
    "id": "3472367",
    "neo_reference_id": "3472367",
    "name": "(2009 UD19)",
    "designation": "2009 UD19",
    "nasa_jpl_url": "http://ssd.jpl.nasa.gov/sbdb.cgi?sstr=3472367",
    "absolute_magnitude_h": 24.0,
    "estimated_diameter": {
        "kilometers": {
            "estimated_diameter_min": 0.0421264611,
            "estimated_diameter_max": 0.0941976306
        },
        "meters": {
            "estimated_diameter_min": 42.1264610556,
            "estimated_diameter_max": 94.1976305719
        },
        "miles": {
            "estimated_diameter_min": 0.0261761612,
            "estimated_diameter_max": 0.0585316759
        },
        "feet": {
            "estimated_diameter_min": 138.2101784897,
            "estimated_diameter_max": 309.0473542854
        }
    },
    "is_potentially_hazardous_asteroid": false,
    "close_approach_data": [
        {
            "close_approach_date": "2009-11-12",
            "close_approach_date_full": "2009-Nov-12 22:23",
            "epoch_date_close_approach": 1258064580000,
            "relative_velocity": {
                "kilometers_per_second": "8.0638594237",
                "kilometers_per_hour": "29029.893925159",
                "miles_per_hour": "18038.0471447745"
            },
            "miss_distance": {
                "astronomical": "0.0624924403",
                "lunar": "24.3095592767",
                "kilometers": "9348735.959982161",
                "miles": "5809035.1569933818"
            },
            "orbiting_body": "Earth"
        }
    ],
    "orbital_data": {
        "orbit_id": "15",
        "orbit_determination_date": "2017-04-06 08:59:25",
        "first_observation_date": "2009-10-24",
        "last_observation_date": "2009-11-17",
        "data_arc_in_days": 24,
        "observations_used": 50,
        "orbit_uncertainty": "8",
        "minimum_orbit_intersection": ".0394294",
        "jupiter_tisserand_invariant": "4.142",
        "epoch_osculation": "2455138.5",
        "eccentricity": ".416975350885142",
        "semi_major_axis": "1.670774128987824",
        "inclination": "3.568013802481843",
        "ascending_node_longitude": "204.7158898503235",
        "orbital_period": "788.8147804551618",
        "perihelion_distance": ".9741025003033089",
        "perihelion_argument": "241.4246466495598",
        "aphelion_distance": "2.36744575767234",
        "perihelion_time": "2455176.434307078238",
        "mean_anomaly": "342.6875067677032",
        "mean_motion": ".456380900713185",
        "equinox": "J2000",
        "orbit_class": {
            "orbit_class_type": "APO",
            "orbit_class_description": "Near-Earth asteroid orbits which cross the Earth’s orbit similar to that of 1862 Apollo",
            "orbit_class_range": "a (semi-major axis) > 1.0 AU; q (perihelion) < 1.017 AU"
        }
    },
    "is_sentry_object": false
}